[{"OBJECT_NAME":"CS2","OBJECT_ID":"2021-088C","EPOCH":"2026-03-09T17:38:11.846112","MEAN_MOTION":15.3325593,"ECCENTRICITY":0.00116375,"INCLINATION":97.3928,"RA_OF_ASC_NODE":134.2907,"ARG_OF_PERICENTER":82.3491,"MEAN_ANOMALY":277.9072,"EPHEMERIS_TYPE":0,"CLASSIFICATION_TYPE":"U","NORAD_CAT_ID":49262,"ELEMENT_SET_NO":999,"REV_AT_EPOCH":24526,"BSTAR":0.0005617759,"MEAN_MOTION_DOT":0.00018033,"MEAN_MOTION_DDOT":0},{"OBJECT_NAME":"STARLINK-30437","OBJECT_ID":"2023-156J","EPOCH":"2026-03-09T06:24:08.785440","MEAN_MOTION":15.30194159,"ECCENTRICITY":0.0001127,"INCLINATION":53.1603,"RA_OF_ASC_NODE":80.1618,"ARG_OF_PERICENTER":92.6776,"MEAN_ANOMALY":267.4354,"EPHEMERIS_TYPE":0,"CLASSIFICATION_TYPE":"U","NORAD_CAT_ID":58036,"ELEMENT_SET_NO":999,"REV_AT_EPOCH":13620,"BSTAR":-9.07274e-6,"MEAN_MOTION_DOT":-6.28e-6,"MEAN_MOTION_DDOT":0}]
